start=new Date('2023-06-16T00:00:00.000Z').valueOf();
sats=[{"ELEMENT_SET_NO":"999","ARG_OF_PERICENTER":"83.3294","PERIAPSIS":"546.316","REV_AT_EPOCH":"12625","TIME_SYSTEM":"UTC","TLE_LINE1":"1 47903U 21021AV  23166.70509088  .00022447  00000-0  15207-2 0  9990","REF_FRAME":"TEME","COUNTRY_CODE":"US","NORAD_CAT_ID":"47903","RCS_SIZE":"LARGE","MEAN_MOTION_DDOT":"0.0000000000000","DECAY_DATE":null,"LAUNCH_DATE":"2021-03-14","EPOCH":"2023-06-15T16:55:19.852032","FILE":"3934071","MEAN_ANOMALY":"276.7838","MEAN_ELEMENT_THEORY":"SGP4","APOAPSIS":"548.063","CENTER_NAME":"EARTH","SITE":"AFETR","OBJECT_TYPE":"PAYLOAD","BSTAR":"0.00152070000000","SEMIMAJOR_AXIS":"6925.325","EPHEMERIS_TYPE":"0","TLE_LINE2":"2 47903  53.0546  61.7324 0001261  83.3294 276.7838 15.06407781126256","RA_OF_ASC_NODE":"61.7324","MEAN_MOTION":"15.06407781","PERIOD":"95.592","INCLINATION":"53.0546","MEAN_MOTION_DOT":"0.00022447","OBJECT_ID":"2021-021AV","GP_ID":"234019568","CLASSIFICATION_TYPE":"U","OBJECT_NAME":"STARLINK-2363","ECCENTRICITY":"0.00012610"},{"CLASSIFICATION_TYPE":"U","OBJECT_NAME":"STARLINK-2364","ECCENTRICITY":"0.00010250","OBJECT_ID":"2021-021AW","GP_ID":"233985847","PERIOD":"95.593","MEAN_MOTION_DOT":"0.00014278","INCLINATION":"53.0545","TLE_LINE2":"2 47904  53.0545  64.4305 0001025 142.4451 217.6609 15.06390466125806","EPHEMERIS_TYPE":"0","MEAN_MOTION":"15.06390466","RA_OF_ASC_NODE":"64.4305","BSTAR":"0.00097575000000","OBJECT_TYPE":"PAYLOAD","SEMIMAJOR_AXIS":"6925.378","APOAPSIS":"547.953","CENTER_NAME":"EARTH","SITE":"AFETR","MEAN_ELEMENT_THEORY":"SGP4","MEAN_ANOMALY":"217.6609","DECAY_DATE":null,"LAUNCH_DATE":"2021-03-14","EPOCH":"2023-06-15T02:31:31.488384","FILE":"3933820","NORAD_CAT_ID":"47904","RCS_SIZE":"LARGE","MEAN_MOTION_DDOT":"0.0000000000000","COUNTRY_CODE":"US","REF_FRAME":"TEME","TIME_SYSTEM":"UTC","TLE_LINE1":"1 47904U 21021AW  23166.10522556  .00014278  00000-0  97575-3 0  9992","REV_AT_EPOCH":"12580","PERIAPSIS":"546.533","ARG_OF_PERICENTER":"142.4451","ELEMENT_SET_NO":"999"},{"CENTER_NAME":"EARTH","APOAPSIS":"548.117","SITE":"AFETR","TLE_LINE2":"2 47905  53.0544  65.6323 0001270 107.6229 252.4899 15.06392206125315","EPHEMERIS_TYPE":"0","MEAN_MOTION":"15.06392206","RA_OF_ASC_NODE":"65.6323","BSTAR":"0.00024451000000","OBJECT_TYPE":"PAYLOAD","SEMIMAJOR_AXIS":"6925.372","OBJECT_ID":"2021-021AX","GP_ID":"233951672","PERIOD":"95.593","INCLINATION":"53.0544","MEAN_MOTION_DOT":"0.00003362","CLASSIFICATION_TYPE":"U","OBJECT_NAME":"STARLINK-2365","ECCENTRICITY":"0.00012700","REV_AT_EPOCH":"12531","PERIAPSIS":"546.358","ARG_OF_PERICENTER":"107.6229","ELEMENT_SET_NO":"999","REF_FRAME":"TEME","TIME_SYSTEM":"UTC","TLE_LINE1":"1 47905U 21021AX  23165.83520320  .00003362  00000-0  24451-3 0  9994","NORAD_CAT_ID":"47905","RCS_SIZE":"LARGE","MEAN_MOTION_DDOT":"0.0000000000000","COUNTRY_CODE":"US","MEAN_ANOMALY":"252.4899","MEAN_ELEMENT_THEORY":"SGP4","DECAY_DATE":null,"LAUNCH_DATE":"2021-03-14","EPOCH":"2023-06-14T20:02:41.556480","FILE":"3933231"},{"CLASSIFICATION_TYPE":"U","OBJECT_NAME":"STARLINK-2366","ECCENTRICITY":"0.00058540","OBJECT_ID":"2021-021AY","GP_ID":"234025031","PERIOD":"90.657","INCLINATION":"52.9867","MEAN_MOTION_DOT":"0.00443784","TLE_LINE2":"2 47906  52.9867  74.4061 0005854 223.6314 289.3585 15.88401058130295","EPHEMERIS_TYPE":"0","RA_OF_ASC_NODE":"74.4061","MEAN_MOTION":"15.88401058","BSTAR":"0.00149180000000","OBJECT_TYPE":"PAYLOAD","SEMIMAJOR_AXIS":"6684.902","CENTER_NAME":"EARTH","APOAPSIS":"310.681","SITE":"AFETR","MEAN_ANOMALY":"289.3585","MEAN_ELEMENT_THEORY":"SGP4","LAUNCH_DATE":"2021-03-14","DECAY_DATE":null,"FILE":"3934078","EPOCH":"2023-06-16T04:03:19.807200","NORAD_CAT_ID":"47906","MEAN_MOTION_DDOT":"0.0000000000000","RCS_SIZE":"LARGE","COUNTRY_CODE":"US","REF_FRAME":"TEME","TIME_SYSTEM":"UTC","TLE_LINE1":"1 47906U 21021AY  23167.16897925  .00443784  00000-0  14918-2 0  9993","PERIAPSIS":"302.854","REV_AT_EPOCH":"13029","ELEMENT_SET_NO":"999","ARG_OF_PERICENTER":"223.6314"},{"ELEMENT_SET_NO":"999","ARG_OF_PERICENTER":"78.1646","PERIAPSIS":"546.224","REV_AT_EPOCH":"12507","TIME_SYSTEM":"UTC","TLE_LINE1":"1 47907U 21021AZ  23166.17710273  .00004453  00000-0  31775-3 0  9991","REF_FRAME":"TEME","COUNTRY_CODE":"US","NORAD_CAT_ID":"47907","RCS_SIZE":"LARGE","MEAN_MOTION_DDOT":"0.0000000000000","LAUNCH_DATE":"2021-03-14","DECAY_DATE":null,"FILE":"3933828","EPOCH":"2023-06-15T04:15:01.675872","MEAN_ELEMENT_THEORY":"SGP4","MEAN_ANOMALY":"281.9510","CENTER_NAME":"EARTH","APOAPSIS":"548.288","SITE":"AFETR","BSTAR":"0.00031775000000","OBJECT_TYPE":"PAYLOAD","SEMIMAJOR_AXIS":"6925.391","EPHEMERIS_TYPE":"0","TLE_LINE2":"2 47907  53.0557  84.1204 0001490  78.1646 281.9510 15.06386165125071","RA_OF_ASC_NODE":"84.1204","MEAN_MOTION":"15.06386165","PERIOD":"95.593","INCLINATION":"53.0557","MEAN_MOTION_DOT":"0.00004453","OBJECT_ID":"2021-021AZ","GP_ID":"233992347","CLASSIFICATION_TYPE":"U","OBJECT_NAME":"STARLINK-2367","ECCENTRICITY":"0.00014900"},{"COUNTRY_CODE":"US","NORAD_CAT_ID":"47908","MEAN_MOTION_DDOT":"0.0000000000000","RCS_SIZE":"LARGE","LAUNCH_DATE":"2021-03-14","DECAY_DATE":null,"FILE":"3934071","EPOCH":"2023-06-15T18:45:29.980800","MEAN_ANOMALY":"290.1402","MEAN_ELEMENT_THEORY":"SGP4","ELEMENT_SET_NO":"999","ARG_OF_PERICENTER":"69.9713","PERIAPSIS":"546.382","REV_AT_EPOCH":"12563","TIME_SYSTEM":"UTC","TLE_LINE1":"1 47908U 21021BA  23166.78159700  .00017082  00000-0  11627-2 0  9996","REF_FRAME":"TEME","PERIOD":"95.592","INCLINATION":"53.0558","MEAN_MOTION_DOT":"0.00017082","OBJECT_ID":"2021-021BA","GP_ID":"234020308","CLASSIFICATION_TYPE":"U","OBJECT_NAME":"STARLINK-2368","ECCENTRICITY":"0.00011720","CENTER_NAME":"EARTH","APOAPSIS":"548.006","SITE":"AFETR","BSTAR":"0.00116270000000","OBJECT_TYPE":"PAYLOAD","SEMIMAJOR_AXIS":"6925.329","TLE_LINE2":"2 47908  53.0558  81.4010 0001172  69.9713 290.1402 15.06406354125635","EPHEMERIS_TYPE":"0","RA_OF_ASC_NODE":"81.4010","MEAN_MOTION":"15.06406354"},{"COUNTRY_CODE":"US","RCS_SIZE":"LARGE","MEAN_MOTION_DDOT":"0.0000000000000","NORAD_CAT_ID":"47909","FILE":"3933841","EPOCH":"2023-06-15T17:32:30.933312","DECAY_DATE":null,"LAUNCH_DATE":"2021-03-14","MEAN_ELEMENT_THEORY":"SGP4","MEAN_ANOMALY":"244.7767","ARG_OF_PERICENTER":"115.3354","ELEMENT_SET_NO":"999","REV_AT_EPOCH":"12530","PERIAPSIS":"546.335","TLE_LINE1":"1 47909U 21021BB  23166.73091358  .00011426  00000-0  78473-3 0  9995","TIME_SYSTEM":"UTC","REF_FRAME":"TEME","INCLINATION":"53.0537","MEAN_MOTION_DOT":"0.00011426","PERIOD":"95.592","GP_ID":"233992723","OBJECT_ID":"2021-021BB","ECCENTRICITY":"0.00012760","OBJECT_NAME":"STARLINK-2369","CLASSIFICATION_TYPE":"U","SITE":"AFETR","CENTER_NAME":"EARTH","APOAPSIS":"548.102","SEMIMAJOR_AXIS":"6925.353","OBJECT_TYPE":"PAYLOAD","BSTAR":"0.00078473000000","MEAN_MOTION":"15.06398397","RA_OF_ASC_NODE":"71.6248","EPHEMERIS_TYPE":"0","TLE_LINE2":"2 47909  53.0537  71.6248 0001276 115.3354 244.7767 15.06398397125309"},{"REF_FRAME":"TEME","TLE_LINE1":"1 47910U 21021BC  23166.76682068  .00012486  00000-0  85540-3 0  9994","TIME_SYSTEM":"UTC","REV_AT_EPOCH":"12579","PERIAPSIS":"546.383","ARG_OF_PERICENTER":"81.4136","ELEMENT_SET_NO":"999","MEAN_ANOMALY":"278.6985","MEAN_ELEMENT_THEORY":"SGP4","EPOCH":"2023-06-15T18:24:13.306752","FILE":"3934071","LAUNCH_DATE":"2021-03-14","DECAY_DATE":null,"RCS_SIZE":"LARGE","MEAN_MOTION_DDOT":"0.0000000000000","NORAD_CAT_ID":"47910","COUNTRY_CODE":"US","MEAN_MOTION":"15.06409459","RA_OF_ASC_NODE":"71.4702","EPHEMERIS_TYPE":"0","TLE_LINE2":"2 47910  53.0545  71.4702 0001158  81.4136 278.6985 15.06409459125796","SEMIMAJOR_AXIS":"6925.320","OBJECT_TYPE":"PAYLOAD","BSTAR":"0.00085540000000","SITE":"AFETR","CENTER_NAME":"EARTH","APOAPSIS":"547.987","OBJECT_NAME":"STARLINK-2370","ECCENTRICITY":"0.00011580","CLASSIFICATION_TYPE":"U","GP_ID":"234018820","OBJECT_ID":"2021-021BC","MEAN_MOTION_DOT":"0.00012486","INCLINATION":"53.0545","PERIOD":"95.592"},{"SEMIMAJOR_AXIS":"6925.388","OBJECT_TYPE":"PAYLOAD","BSTAR":"0.00015261000000","RA_OF_ASC_NODE":"89.3184","MEAN_MOTION":"15.06387152","EPHEMERIS_TYPE":"0","TLE_LINE2":"2 47911  53.0547  89.3184 0001094  77.4853 282.6258 15.06387152125323","SITE":"AFETR","APOAPSIS":"548.011","CENTER_NAME":"EARTH","ECCENTRICITY":"0.00010940","OBJECT_NAME":"STARLINK-2371","CLASSIFICATION_TYPE":"U","INCLINATION":"53.0547","MEAN_MOTION_DOT":"0.00001992","PERIOD":"95.593","GP_ID":"233987100","OBJECT_ID":"2021-021BD","TLE_LINE1":"1 47911U 21021BD  23166.18588617  .00001992  00000-0  15261-3 0  9999","TIME_SYSTEM":"UTC","REF_FRAME":"TEME","ELEMENT_SET_NO":"999","ARG_OF_PERICENTER":"77.4853","PERIAPSIS":"546.495","REV_AT_EPOCH":"12532","FILE":"3933820","EPOCH":"2023-06-15T04:27:40.565088","DECAY_DATE":null,"LAUNCH_DATE":"2021-03-14","MEAN_ANOMALY":"282.6258","MEAN_ELEMENT_THEORY":"SGP4","COUNTRY_CODE":"US","MEAN_MOTION_DDOT":"0.0000000000000","RCS_SIZE":"LARGE","NORAD_CAT_ID":"47911"},{"ECCENTRICITY":"0.00010740","OBJECT_NAME":"STARLINK-2372","CLASSIFICATION_TYPE":"U","GP_ID":"234019809","OBJECT_ID":"2021-021BE","MEAN_MOTION_DOT":"0.00014395","INCLINATION":"53.0557","PERIOD":"95.592","MEAN_MOTION":"15.06405182","RA_OF_ASC_NODE":"71.4875","TLE_LINE2":"2 47912  53.0557  71.4875 0001074 106.6680 253.4427 15.06405182125626","EPHEMERIS_TYPE":"0","SEMIMAJOR_AXIS":"6925.333","OBJECT_TYPE":"PAYLOAD","BSTAR":"0.00098314000000","SITE":"AFETR","CENTER_NAME":"EARTH","APOAPSIS":"547.941","MEAN_ELEMENT_THEORY":"SGP4","MEAN_ANOMALY":"253.4427","FILE":"3934071","EPOCH":"2023-06-15T18:13:36.520608","DECAY_DATE":null,"LAUNCH_DATE":"2021-03-14","MEAN_MOTION_DDOT":"0.0000000000000","RCS_SIZE":"LARGE","NORAD_CAT_ID":"47912","COUNTRY_CODE":"US","REF_FRAME":"TEME","TLE_LINE1":"1 47912U 21021BE  23166.75945047  .00014395  00000-0  98314-3 0  9998","TIME_SYSTEM":"UTC","REV_AT_EPOCH":"12562","PERIAPSIS":"546.454","ARG_OF_PERICENTER":"106.6680","ELEMENT_SET_NO":"999"}];
